      2.10          N: GNSS NAV DATA                        RINEX VERSION / TYPE
fic2rin                                 08/08/2020 00:17:34 PGM / RUN BY / DATE
                                                            END OF HEADER
 1 20  8  7 19 59 44.0 3.230944275856e-05 2.728484105319e-12 0.000000000000e+00
    1.900000000000e+01 4.856250000000e+01 4.353038464382e-09-2.029304465225e+00
    2.343207597733e-06 1.007947954349e-02 4.747882485390e-06 5.153701629639e+03
    5.039840000000e+05 1.471489667892e-07 1.820052908555e+00-8.381903171539e-08
    9.807591870940e-01 2.960312500000e+02 8.175056427914e-01-8.024262814183e-09
    4.878774649119e-10 1.000000000000e+00 2.117000000000e+03 0.000000000000e+00
    2.400000000000e+00 0.000000000000e+00 5.122274160385e-09 1.900000000000e+01
    4.968000000000e+05 4.000000000000e+00
25 20  8  7 19 59 44.0 3.257300704718e-05 4.661160346586e-12 0.000000000000e+00
    5.000000000000e+00-3.112500000000e+01 4.370539193357e-09 2.615041965806e+00
   -1.672655344009e-06 9.087489568628e-03 6.474554538727e-06 5.153752658844e+03
    5.039840000000e+05 3.725290298462e-08-2.811341899103e-01-1.080334186554e-07
    9.648344109403e-01 2.549687500000e+02 9.381495168244e-01-7.937473484774e-09
   -3.153702792951e-10 1.000000000000e+00 2.117000000000e+03 0.000000000000e+00
    2.400000000000e+00 0.000000000000e+00 5.587935447693e-09 5.000000000000e+00
    4.968000000000e+05 4.000000000000e+00
 5 20  8  7 20  0  0.0-1.832703128457e-05-7.958078640513e-13 0.000000000000e+00
    2.800000000000e+01-6.743750000000e+01 5.059139304888e-09 8.981278729852e-01
   -3.270804882050e-06 6.056113634259e-03 5.319714546204e-06 5.153711915970e+03
    5.040000000000e+05 2.421438694000e-08 2.827401780130e+00 6.705522537231e-08
    9.535829807187e-01 2.742500000000e+02 8.411219755350e-01-8.514283225500e-09
   -2.778687172046e-10 1.000000000000e+00 2.117000000000e+03 0.000000000000e+00
    2.400000000000e+00 0.000000000000e+00-1.117587089539e-08 2.800000000000e+01
    4.968000000000e+05 4.000000000000e+00
 4 20  8  7 20  0  0.0-1.218421384692e-04-4.433786671143e-12 0.000000000000e+00
    6.100000000000e+01-2.140625000000e+01 4.315536902291e-09-7.327134860349e-01
   -1.274049282074e-06 7.995232008398e-04 1.171603798866e-05 5.153654556274e+03
    5.040000000000e+05 2.235174179077e-08-2.344060525381e+00-1.862645149231e-09
    9.602080524739e-01 1.531875000000e+02-2.723046521681e+00-7.869256357542e-09
   -2.714398779890e-11 1.000000000000e+00 2.117000000000e+03 0.000000000000e+00
    2.400000000000e+00 0.000000000000e+00-4.190951585770e-09 6.100000000000e+01
    4.968000000000e+05 4.000000000000e+00
 2 20  8  7 20  0  0.0-4.988680593669e-04-5.570655048359e-12 0.000000000000e+00
    4.700000000000e+01 5.371875000000e+01 4.685552314918e-09-1.779153942503e+00
    3.285706043243e-06 1.974980987143e-02 4.686415195465e-06 5.153754196167e+03
    5.040000000000e+05 2.309679985046e-07 1.742247965998e+00 3.632158041000e-07
    9.596939552654e-01 2.864687500000e+02-1.612321426173e+00-8.108909197188e-09
    3.746584631717e-10 1.000000000000e+00 2.117000000000e+03 0.000000000000e+00
    2.400000000000e+00 0.000000000000e+00-1.769512891769e-08 4.700000000000e+01
    4.968000000000e+05 4.000000000000e+00
 3 20  8  7 20  0  0.0-2.633114345372e-04-1.114131009672e-11 0.000000000000e+00
    5.200000000000e+01-7.559375000000e+01 4.661622746727e-09-3.124061719196e+00
   -3.982335329056e-06 3.132171463221e-03 5.628913640976e-06 5.153773218155e+03
    5.040000000000e+05-5.587935447693e-09 2.860271352068e+00-1.098960638046e-07
    9.666894949320e-01 2.719687500000e+02 8.185138025453e-01-8.216413675181e-09
   -2.700112470522e-10 1.000000000000e+00 2.117000000000e+03 0.000000000000e+00
    2.400000000000e+00 0.000000000000e+00 1.862645149231e-09 5.200000000000e+01
    4.968000000000e+05 4.000000000000e+00
12 20  8  7 20  0  0.0 8.355267345905e-05-5.002220859751e-12 0.000000000000e+00
    1.000000000000e+01-2.887500000000e+01 4.068740907962e-09 2.840045893734e+00
   -1.471489667892e-06 7.931509870104e-03 6.929039955139e-06 5.153648097992e+03
    5.040000000000e+05 4.097819328308e-08-2.113317808284e-01-5.401670932770e-08
    9.775541427796e-01 2.522500000000e+02 1.168206486684e+00-7.759608933144e-09
   -3.342996392075e-10 1.000000000000e+00 2.117000000000e+03 0.000000000000e+00
    2.400000000000e+00 0.000000000000e+00-1.210719347000e-08 1.000000000000e+01
    4.968000000000e+05 4.000000000000e+00
 9 20  8  7 20  0  0.0-2.666776999831e-04-6.139089236967e-12 0.000000000000e+00
    5.700000000000e+01-3.043750000000e+01 4.485901141503e-09 5.226324635913e-01
   -1.601874828339e-06 1.617152011022e-03 1.148879528046e-05 5.153688562393e+03
    5.040000000000e+05-3.166496753693e-08-2.392542212769e+00-1.490116119385e-08
    9.529925879437e-01 1.539062500000e+02 1.777125493941e+00-7.992475775840e-09
   -1.642925577302e-11 1.000000000000e+00 2.117000000000e+03 0.000000000000e+00
    2.400000000000e+00 0.000000000000e+00 1.396983861923e-09 5.700000000000e+01
    4.968000000000e+05 4.000000000000e+00
10 20  8  7 20  0  0.0-4.214267246425e-04-1.034550223267e-11 0.000000000000e+00
    3.100000000000e+01-7.409375000000e+01 4.659122642588e-09 2.221632900705e+00
   -3.771856427193e-06 5.770432879217e-03 5.748122930527e-06 5.153668682098e+03
    5.040000000000e+05-2.123415470123e-07 2.857263122901e+00-4.097819328308e-08
    9.666209806266e-01 2.737812500000e+02-2.650091968865e+00-8.178554955356e-09
   -2.178662178596e-10 1.000000000000e+00 2.117000000000e+03 0.000000000000e+00
    2.400000000000e+00 0.000000000000e+00 2.328306436539e-09 3.100000000000e+01
    4.968000000000e+05 4.000000000000e+00
 6 20  8  7 20  0  0.0-3.129094839096e-04-4.433786671143e-12 0.000000000000e+00
    4.200000000000e+01 4.328125000000e+01 4.389111395536e-09-1.751961459701e+00
    2.371147274971e-06 1.760092913173e-03 5.286186933517e-06 5.153588212967e+03
    5.040000000000e+05-7.264316082001e-08 1.811801004601e+00 1.303851604462e-08
    9.802985653929e-01 2.903437500000e+02-1.080222587927e+00-8.072836266034e-09
    3.357282701443e-10 1.000000000000e+00 2.117000000000e+03 0.000000000000e+00
    2.400000000000e+00 0.000000000000e+00 4.190951585770e-09 4.200000000000e+01
    4.968000000000e+05 4.000000000000e+00
 7 20  8  7 20  0  0.0-3.450796939433e-04-8.526512829121e-12 0.000000000000e+00
    8.800000000000e+01 4.259375000000e+01 4.804485840406e-09-2.742943796288e+00
    2.088025212288e-06 1.417518244125e-02 6.409361958504e-06 5.153647630692e+03
    5.040000000000e+05 7.264316082001e-08-1.318554594863e+00-2.328306436539e-07
    9.524196463183e-01 2.496562500000e+02-2.373918836985e+00-8.061407218540e-09
    2.925121843066e-10 1.000000000000e+00 2.117000000000e+03 0.000000000000e+00
    3.400000000000e+00 0.000000000000e+00-1.117587089539e-08 8.800000000000e+01
    4.968000000000e+05 4.000000000000e+00
 8 20  8  7 20  0  0.0-4.368927329779e-05-1.250555214938e-12 0.000000000000e+00
    7.500000000000e+01 2.521875000000e+01 4.085170163735e-09 2.721385179245e-01
    1.396983861923e-06 5.381535156630e-03 1.103058457375e-05 5.153708206177e+03
    5.040000000000e+05 1.043081283569e-07 7.490845121824e-01-5.774199962616e-08
    9.694804427290e-01 1.703125000000e+02-6.066525536282e-02-7.907829392835e-09
    2.928693420408e-11 1.000000000000e+00 2.117000000000e+03 0.000000000000e+00
    2.400000000000e+00 0.000000000000e+00 5.122274160385e-09 7.500000000000e+01
    4.968000000000e+05 4.000000000000e+00
22 20  8  7 20  0  0.0-7.660505361855e-04 3.183231456205e-12 0.000000000000e+00
    3.400000000000e+01-7.071875000000e+01 5.590232855637e-09-8.187685156008e-01
   -3.656372427940e-06 6.859233719297e-03 4.790723323822e-06 5.153767017365e+03
    5.040000000000e+05-7.078051567078e-08 2.771273493087e+00-6.519258022308e-08
    9.317531167201e-01 2.715312500000e+02-1.108846186432e+00-8.852868757518e-09
   -1.617924535908e-10 1.000000000000e+00 2.117000000000e+03 0.000000000000e+00
    2.400000000000e+00 0.000000000000e+00-1.816079020500e-08 3.400000000000e+01
    4.968000000000e+05 4.000000000000e+00
15 20  8  7 20  0  0.0-2.121748402715e-04 2.614797267597e-12 0.000000000000e+00
    7.100000000000e+01-2.490625000000e+01 5.193073455211e-09-7.180668950541e-01
   -1.283362507820e-06 1.254555443302e-02 1.004897058010e-05 5.153733049393e+03
    5.040000000000e+05 7.450580596924e-09-2.483912765417e+00 2.719461917877e-07
    9.286155041517e-01 1.683437500000e+02 9.007952861279e-01-8.457852303497e-09
   -1.128618440060e-10 1.000000000000e+00 2.117000000000e+03 0.000000000000e+00
    2.400000000000e+00 0.000000000000e+00-1.071020960808e-08 7.100000000000e+01
    4.968000000000e+05 4.000000000000e+00
19 20  8  7 20  0  0.0-1.215087249875e-04 5.115907697473e-12 0.000000000000e+00
    7.600000000000e+01 3.546875000000e+01 3.817301863088e-09 2.650896117378e+00
    1.735985279083e-06 9.387680911459e-03 1.010857522488e-05 5.153699113846e+03
    5.040000000000e+05 9.499490261078e-08 8.683042062069e-01-2.607703208923e-08
    9.820580564657e-01 1.945625000000e+02 1.689798528789e+00-7.526384932714e-09
    8.428922527028e-11 1.000000000000e+00 2.117000000000e+03 0.000000000000e+00
    2.400000000000e+00 0.000000000000e+00-1.536682248116e-08 7.600000000000e+01
    4.968000000000e+05 4.000000000000e+00
11 20  8  7 20  0  0.0-1.991167664528e-04 1.057287590811e-11 0.000000000000e+00
    7.700000000000e+01 8.696875000000e+01 5.457013020782e-09-2.544958799338e+00
    4.626810550690e-06 1.606393873226e-02 7.646158337593e-06 5.153722532272e+03
    5.040000000000e+05 1.043081283569e-07 1.340589511700e+00 2.067536115646e-07
    9.130384138862e-01 2.009062500000e+02 2.021308061377e+00-8.356776664720e-09
    4.139458139333e-10 1.000000000000e+00 2.117000000000e+03 0.000000000000e+00
    3.400000000000e+00 0.000000000000e+00-1.210719347000e-08 7.700000000000e+01
    4.968000000000e+05 4.000000000000e+00
